OBJECT_NAME,OBJECT_ID,EPOCH,MEAN_MOTION,ECCENTRICITY,INCLINATION,RA_OF_ASC_NODE,ARG_OF_PERICENTER,MEAN_ANOMALY,EPHEMERIS_TYPE,CLASSIFICATION_TYPE,NORAD_CAT_ID,ELEMENT_SET_NO,REV_AT_EPOCH,BSTAR,MEAN_MOTION_DOT,MEAN_MOTION_DDOT
BEIDOU-3S IGSO-1S (C31),2015-019A,2026-07-02T19:12:21.705408,1.00680073,.00768606,49.1798,295.2769,219.1125,144.2493,0,U,40549,999,4123,0,-.19E-5,0
BEIDOU-3S M2S (C58),2015-037A,2026-07-10T09:53:34.240704,1.86232238,.0009273,54.8489,301.2473,257.2247,102.6907,0,U,40748,999,7455,0,-.67E-6,0
BEIDOU-3S M1S (C57),2015-037B,2026-07-09T00:08:48.653088,1.86254781,.0002899,54.8466,301.2825,63.4682,296.5816,0,U,40749,999,7453,0,-.66E-6,0
GSAT0206 (GALILEO 10),2015-045B,2026-07-10T08:01:00.659424,1.70473539,.0002065,54.9400,220.9648,329.8405,30.2271,0,U,40890,999,6743,0,.9E-6,0
BEIDOU-3S IGSO-2S (C56),2015-053A,2026-07-10T15:45:40.199328,1.00254238,.0066299,49.1849,258.5030,193.1118,167.0935,0,U,40938,999,3959,0,-.97E-6,0
GSAT-15 (GAGAN/PRN 139),2015-065A,2026-07-11T12:17:34.020384,1.00269469,.0003553,0.0221,39.3064,53.0830,114.9333,0,U,41028,999,3904,0,0,0
GSAT0209 (GALILEO 12),2015-079A,2026-07-08T03:44:33.897696,1.70473596,.00049977,55.8390,100.6867,350.6288,9.3765,0,U,41174,999,6513,0,-.8E-7,0
GSAT0208 (GALILEO 11),2015-079B,2026-07-08T09:01:55.815744,1.70473357,.00044233,55.8379,100.6775,15.9812,344.0466,0,U,41175,999,6555,0,-.9E-7,0
IRNSS-1E,2016-003A,2026-07-10T13:58:50.692224,1.00267797,.0019285,33.2836,59.4106,178.7449,11.7354,0,U,41241,999,3831,0,-.316E-5,0
COSMOS 2514 (751),2016-008A,2026-07-11T05:13:06.677760,2.13102486,.0012191,65.0058,312.1821,200.7153,159.2416,0,U,41330,999,8113,0,-.62E-6,0
BEIDOU-2 IGSO-6 (C13),2016-021A,2026-06-26T02:38:38.671584,1.00258926,.0057558,60.2385,37.9495,231.0163,137.2672,0,U,41434,999,3757,0,-.145E-5,0
IRNSS-1G,2016-027A,2026-07-11T12:27:55.524960,1.00272973,.0005966,5.2538,96.9107,9.7716,139.3966,0,U,41469,999,3742,0,-.334E-5,0
GSAT0211 (GALILEO 14),2016-030A,2026-07-10T20:18:43.597152,1.70473688,.0003314,55.0905,221.0437,318.6557,41.3997,0,U,41549,999,6307,0,.9E-6,0
GSAT0210 (GALILEO 13),2016-030B,2026-07-09T22:19:47.714304,1.70474002,.00046831,55.0899,221.0670,245.4873,114.5425,0,U,41550,999,6305,0,.89E-6,0
BEIDOU-2 G7 (C03),2016-037A,2026-07-11T12:22:26.053248,1.00275294,.0006078,1.7765,69.4798,359.6440,156.4114,0,U,41586,999,713,0,-.349E-5,0
EUTELSAT 117 WEST B (WAAS/PRN 131),2016-038B,2026-07-11T11:17:32.322336,1.00267983,.0000172,0.0096,144.2626,5.6068,191.9052,0,U,41589,999,3690,0,-.5E-7,0
GSAT0207 (GALILEO 15),2016-069A,2026-07-09T00:51:31.567392,1.70473324,.0004251,55.5102,100.4816,344.5564,15.4422,0,U,41859,999,5977,0,-.14E-6,0
GSAT0212 (GALILEO 16),2016-069B,2026-07-07T03:06:21.976128,1.70473650,.000438,55.5076,100.5296,9.6218,350.4046,0,U,41860,999,5999,0,-.3E-7,0
GSAT0213 (GALILEO 17),2016-069C,2026-07-10T10:18:28.366272,1.70474095,.0004394,55.5116,100.4460,317.3165,42.6580,0,U,41861,999,5991,0,-.24E-6,0
GSAT0214 (GALILEO 18),2016-069D,2026-07-11T03:53:46.103424,1.70473737,.0003822,55.5107,100.4185,326.4011,33.5832,0,U,41862,999,6005,0,-.28E-6,0
SES-15 (WAAS/PRN 133),2017-026A,2026-07-11T11:56:38.656032,1.00277471,.0000838,0.0255,325.2354,172.2084,201.9672,0,U,42709,999,767,0,.65E-6,0
QZS-2 (QZSS/PRN 194),2017-028A,2026-07-11T10:42:38.710368,1.00277698,.0757869,39.3917,242.7960,269.5570,80.0293,0,U,42738,999,786,0,-.92E-6,0
QZS-3 (QZSS/PRN 199),2017-048A,2026-07-11T13:09:01.461312,1.00273919,.0002501,0.0714,217.6952,267.3883,128.6444,0,U,42917,999,3250,0,-.342E-5,0
COSMOS 2522 (752),2017-055A,2026-07-10T02:47:54.879360,2.13101919,.00109107,64.0805,191.1038,240.8947,119.0275,0,U,42939,999,6846,0,.122E-5,0
QZS-4 (QZSS/PRN 195),2017-062A,2026-07-11T07:03:38.773728,1.00291125,.0747464,40.0943,343.1792,268.4828,282.3291,0,U,42965,999,3204,0,-.323E-5,0
BEIDOU-3 M1 (C19),2017-069A,2026-07-11T07:06:21.043296,1.86231117,.0009358,56.7122,62.2913,328.5937,31.4164,0,U,43001,999,5905,0,-.44E-6,0
BEIDOU-3 M2 (C20),2017-069B,2026-07-10T03:51:48.602880,1.86230592,.0008255,56.7107,62.3639,357.9796,2.0799,0,U,43002,999,5902,0,-.46E-6,0
GSAT0215 (GALILEO 19),2017-079A,2026-07-09T07:20:07.644192,1.70474298,.00036237,55.0687,220.8977,268.5833,91.4517,0,U,43055,999,5336,0,.88E-6,0
